ORBCOMM FM103 [+]       
1 40091U 14040F   24084.43799137  .00001884  00000+0  45764-3 0  9993
2 40091  47.0072 338.9095 0001940   0.8759 359.2129 14.56403705515564
ORBCOMM FM114 [+]       
1 41179U 15081A   24083.58032216  .00002411  00000+0  57523-3 0  9993
2 41179  47.0014 252.2483 0000984  87.1016 272.9981 14.56410642438747
ORBCOMM FM119 [-]       
1 41180U 15081B   24084.50990196  .00002399  00000+0  57257-3 0  9997
2 41180  47.0000 157.0573 0001248 194.7069 165.3780 14.56398137440135
ORBCOMM FM105 [-]       
1 41181U 15081C   24084.36644027  .00000840  00000+0  28753-3 0  9999
2 41181  47.0006 120.3518 0000911 120.9391 239.1579 14.44284988435819
ORBCOMM FM110 [+]       
1 41182U 15081D   24083.83178529  .00001921  00000+0  46605-3 0  9997
2 41182  47.0003 250.4753 0002353 257.9068 102.1553 14.56401993438653
ORBCOMM FM118 [+]       
1 41183U 15081E   24084.42641343  .00001923  00000+0  46631-3 0  9994
2 41183  47.0026 247.9691 0002516 256.3739 103.6866 14.56405523438926
ORBCOMM FM112 [+]       
1 41184U 15081F   24084.48787870  .00002828  00000+0  66820-3 0  9994
2 41184  46.9975 156.3927 0000790 196.0069 164.0791 14.56403264440124
ORBCOMM FM113 [+]       
1 41185U 15081G   24084.46493216  .00002625  00000+0  62289-3 0  9991
2 41185  46.9994 156.7583 0001099 217.2138 142.8671 14.56400871440126
